NORAD_CAT_ID,OBJECT_NAME,OBJECT_TYPE,EPOCH,MEAN_MOTION,ECCENTRICITY,INCLINATION,RA_OF_ASC_NODE,ARG_OF_PERICENTER,MEAN_ANOMALY,BSTAR,MEAN_MOTION_DOT,MEAN_MOTION_DDOT,TLE_LINE0,TLE_LINE1,TLE_LINE2,SEMIMAJOR_AXIS,PERIOD,APOGEE,PERIGEE,DECAYED
53707.0,STARLINK-4667,PAYLOAD,2024-04-27 22:29:12,15.08844975,0.0001435,53.2191,45.1505,105.0339,255.0812,-3.2205e-05,-8.01e-06,0.0,0 STARLINK-4667,1 53707U 22107H   24118.93694861 -.00000801  00000-0 -32205-4 0  9993,2 53707  53.2191  45.1505 0001435 105.0339 255.0812 15.08844975 92295,6917.865,95.437,540.723,538.737,0.0
53707.0,STARLINK-4667,PAYLOAD,2024-04-28 00:04:35,15.08847781,0.0001587,53.2191,44.8526,109.2188,250.8976,-8.0067e-06,-4.15e-06,0.0,0 STARLINK-4667,1 53707U 22107H   24119.00318594 -.00000415  00000-0 -80067-5 0  9999,2 53707  53.2191  44.8526 0001587 109.2188 250.8976 15.08847781 91550,6917.857,95.437,540.819,538.624,0.0
53707.0,STARLINK-4667,PAYLOAD,2024-04-28 22:19:59,15.08832722,0.0001576,53.22,40.6914,100.9473,259.1696,9.3842e-06,-1.39e-06,0.0,0 STARLINK-4667,1 53707U 22107H   24119.93055342 -.00000139  00000-0  93842-5 0  9997,2 53707  53.2200  40.6914 0001576 100.9473 259.1696 15.08832722 92448,6917.903,95.438,540.858,538.677,0.0
53707.0,STARLINK-4667,PAYLOAD,2024-04-29 01:30:46,15.08825572,0.000128,53.2183,40.0944,93.0915,267.0223,-4.4094e-05,-9.89e-06,0.0,0 STARLINK-4667,1 53707U 22107H   24120.06303991 -.00000989  00000-0 -44094-4 0  9997,2 53707  53.2183  40.0944 0001280  93.0915 267.0223 15.08825572 91718,6917.924,95.438,540.675,538.904,0.0
53707.0,STARLINK-4667,PAYLOAD,2024-04-29 11:03:05,15.08835956,0.0001551,53.2209,38.3138,92.8558,267.2611,-0.00018204,-3.184e-05,0.0,0 STARLINK-4667,1 53707U 22107H   24120.46047932 -.00003184  00000-0 -18204-3 0  9994,2 53707  53.2209  38.3138 0001551  92.8558 267.2611 15.08835956 92523,6917.893,95.438,540.831,538.685,0.0
53707.0,STARLINK-4667,PAYLOAD,2024-04-29 22:10:47,15.08825934,0.0001433,53.2197,36.2348,94.3625,265.7531,7.2262e-05,8.62e-06,0.0,0 STARLINK-4667,1 53707U 22107H   24120.92415977  .00000862  00000-0  72262-4 0  9996,2 53707  53.2197  36.2348 0001433  94.3625 265.7531 15.08825934 92596,6917.923,95.438,540.78,538.797,0.0
53707.0,STARLINK-4667,PAYLOAD,2024-04-30 04:32:19,15.08835927,0.0001459,53.2203,35.0435,82.0391,278.0766,7.3102e-05,8.76e-06,0.0,0 STARLINK-4667,1 53707U 22107H   24121.18911631  .00000876  00000-0  73102-4 0  9992,2 53707  53.2203  35.0435 0001459  82.0391 278.0766 15.08835927 91881,6917.893,95.438,540.767,538.749,0.0
53707.0,STARLINK-4667,PAYLOAD,2024-04-30 10:53:52,15.08837582,0.0001493,53.2209,33.8532,92.2278,267.8885,0.00014391,2.003e-05,0.0,0 STARLINK-4667,1 53707U 22107H   24121.45407415  .00002003  00000-0  14391-3 0  9990,2 53707  53.2209  33.8532 0001493  92.2278 267.8885 15.08837582 92671,6917.888,95.438,540.786,538.72,0.0
53707.0,STARLINK-4667,PAYLOAD,2024-04-30 22:01:34,15.08826027,0.0001735,53.2201,31.7742,100.2685,259.8503,0.00014718,2.054e-05,0.0,0 STARLINK-4667,1 53707U 22107H   24121.91776436  .00002054  00000-0  14718-3 0  9992,2 53707  53.2201  31.7742 0001735 100.2685 259.8503 15.08826027 92742,6917.923,95.438,540.988,538.588,0.0
53707.0,STARLINK-4667,PAYLOAD,2024-05-01 01:12:21,15.08825539,0.0001564,53.2201,31.1813,103.5036,256.613,0.00014584,2.033e-05,0.0,0 STARLINK-4667,1 53707U 22107H   24122.05024577  .00002033  00000-0  14584-3 0  9998,2 53707  53.2201  31.1813 0001564 103.5036 256.6130 15.08825539 92019,6917.925,95.438,540.872,538.708,0.0
53707.0,STARLINK-4667,PAYLOAD,2024-05-01 10:44:39,15.08834618,0.0001639,53.2212,29.3965,99.4427,260.6751,0.00016378,2.319e-05,0.0,0 STARLINK-4667,1 53707U 22107H   24122.44768190  .00002319  00000-0  16378-3 0  9997,2 53707  53.2212  29.3965 0001639  99.4427 260.6751 15.08834618 92076,6917.897,95.438,540.896,538.628,0.0
53707.0,STARLINK-4667,PAYLOAD,2024-05-02 02:38:31,15.08830908,0.0001428,53.2199,26.4191,93.7554,266.3601,-8.1034e-06,-4.17e-06,0.0,0 STARLINK-4667,1 53707U 22107H   24123.11009238 -.00000417  00000-0 -81034-5 0  9995,2 53707  53.2199  26.4191 0001428  93.7554 266.3601 15.08830908 92179,6917.908,95.438,540.761,538.785,0.0
53707.0,STARLINK-4667,PAYLOAD,2024-05-02 10:35:26,15.08844213,0.0001566,53.2204,24.9329,90.251,269.8661,5.6863e-05,6.17e-06,0.0,0 STARLINK-4667,1 53707U 22107H   24123.44128311  .00000617  00000-0  56863-4 0  9996,2 53707  53.2204  24.9329 0001566  90.2510 269.8661 15.08844213 92223,6917.868,95.437,540.816,538.649,0.0
53707.0,STARLINK-4667,PAYLOAD,2024-05-03 00:53:53,15.0885856,0.0001214,53.2182,22.2549,107.4276,252.6849,0.00017906,2.564e-05,0.0,0 STARLINK-4667,1 53707U 22107H   24124.03742845  .00002564  00000-0  17906-3 0  9993,2 53707  53.2182  22.2549 0001214 107.4276 252.6849 15.08858560 92311,6917.824,95.436,540.528,538.849,0.0
53707.0,STARLINK-4667,PAYLOAD,2024-05-03 10:26:11,15.08865113,0.0001399,53.2181,20.4717,77.7414,282.3735,0.00020532,2.983e-05,0.0,0 STARLINK-4667,1 53707U 22107H   24124.43486081  .00002983  00000-0  20532-3 0  9998,2 53707  53.2181  20.4717 0001399  77.7414 282.3735 15.08865113 93120,6917.804,95.436,540.636,538.701,0.0
53707.0,STARLINK-4667,PAYLOAD,2024-05-03 23:09:20,15.0881839,0.0001176,53.2179,18.0925,89.7314,270.3813,-2.9844e-05,-7.62e-06,0.0,0 STARLINK-4667,1 53707U 22107H   24124.96481826 -.00000762  00000-0 -29844-4 0  9999,2 53707  53.2179  18.0925 0001176  89.7314 270.3813 15.08818390 93204,6917.946,95.439,540.625,538.998,0.0
53707.0,STARLINK-4667,PAYLOAD,2024-05-04 10:17:01,15.08836652,0.0001327,53.2186,16.0111,92.6242,267.4902,-2.4866e-06,-3.27e-06,0.0,0 STARLINK-4667,1 53707U 22107H   24125.42848919 -.00000327  00000-0 -24866-5 0  9998,2 53707  53.2186  16.0111 0001327  92.6242 267.4902 15.08836652 92529,6917.891,95.438,540.674,538.838,0.0
53707.0,STARLINK-4667,PAYLOAD,2024-05-04 21:24:42,15.08845616,0.0001189,53.2186,13.9297,86.5877,273.5252,8.7435e-05,1.104e-05,0.0,0 STARLINK-4667,1 53707U 22107H   24125.89216100  .00001104  00000-0  87435-4 0  9992,2 53707  53.2186  13.9297 0001189  86.5877 273.5252 15.08845616 92595,6917.863,95.437,540.551,538.906,0.0
53707.0,STARLINK-4667,PAYLOAD,2024-05-05 02:10:51,15.08859324,0.0001262,53.2186,13.0361,116.0223,244.0899,-2.0849e-05,-6.2e-06,0.0,0 STARLINK-4667,1 53707U 22107H   24126.09087371 -.00000620  00000-0 -20849-4 0  9991,2 53707  53.2186  13.0361 0001262 116.0223 244.0899 15.08859324 92629,6917.821,95.436,540.559,538.813,0.0
53707.0,STARLINK-4667,PAYLOAD,2024-05-05 21:15:30,15.08840814,0.0001348,53.2182,9.4673,88.7327,271.382,0.00034426,5.195e-05,0.0,0 STARLINK-4667,1 53707U 22107H   24126.88576584  .00005195  00000-0  34426-3 0  9992,2 53707  53.2182   9.4673 0001348  88.7327 271.3820 15.08840814 92749,6917.878,95.438,540.675,538.81,0.0
53707.0,STARLINK-4667,PAYLOAD,2024-05-05 22:50:53,15.08843864,0.0001353,53.2182,9.1691,91.9677,268.1471,0.00038353,5.822e-05,0.0,0 STARLINK-4667,1 53707U 22107H   24126.95200489  .00005822  00000-0  38353-3 0  9998,2 53707  53.2182   9.1691 0001353  91.9677 268.1471 15.08843864 93505,6917.869,95.437,540.67,538.798,0.0
53707.0,STARLINK-4667,PAYLOAD,2024-05-06 02:01:39,15.08845443,0.0001313,53.2187,8.5745,91.303,268.8113,0.00031432,4.719e-05,0.0,0 STARLINK-4667,1 53707U 22107H   24127.08448416  .00004719  00000-0  31432-3 0  9992,2 53707  53.2187   8.5745 0001313  91.3030 268.8113 15.08845443 93523,6917.864,95.437,540.637,538.82,0.0
53707.0,STARLINK-4667,PAYLOAD,2024-05-06 22:41:39,15.08853104,0.0001277,53.2183,4.7088,91.3154,268.7984,0.00021859,3.194e-05,0.0,0 STARLINK-4667,1 53707U 22107H   24127.94559635  .00003194  00000-0  21859-3 0  9991,2 53707  53.2183   4.7088 0001277  91.3154 268.7984 15.08853104 93655,6917.84,95.437,540.589,538.822,0.0
53707.0,STARLINK-4667,PAYLOAD,2024-05-07 01:52:25,15.088514,0.0001232,53.2182,4.1148,90.9419,269.1714,0.0001118,1.492e-05,0.0,0 STARLINK-4667,1 53707U 22107H   24128.07807578  .00001492  00000-0  11180-3 0  9993,2 53707  53.2182   4.1148 0001232  90.9419 269.1714 15.08851400 92927,6917.846,95.437,540.563,538.858,0.0
53707.0,STARLINK-4667,PAYLOAD,2024-05-07 08:13:57,15.08861384,0.0001218,53.219,2.9265,91.4482,268.665,0.00025224,3.731e-05,0.0,0 STARLINK-4667,1 53707U 22107H   24128.34302910  .00003731  00000-0  25224-3 0  9995,2 53707  53.2190   2.9265 0001218  91.4482 268.6650 15.08861384 92961,6917.815,95.436,540.523,538.837,0.0
53707.0,STARLINK-4667,PAYLOAD,2024-05-07 20:57:04,15.08825369,0.0001202,53.218,0.5469,82.1691,277.9438,-0.00016845,-2.967e-05,0.0,0 STARLINK-4667,1 53707U 22107H   24128.87296836 -.00002967  00000-0 -16845-3 0  9993,2 53707  53.2180   0.5469 0001202  82.1691 277.9438 15.08825369 93042,6917.925,95.438,540.622,538.959,0.0
53707.0,STARLINK-4667,PAYLOAD,2024-05-08 14:26:18,15.08836158,0.0001284,53.2174,357.2781,103.9932,256.1203,6.5585e-05,7.56e-06,0.0,0 STARLINK-4667,1 53707U 22107H   24129.60160563  .00000756  00000-0  65585-4 0  9990,2 53707  53.2174 357.2781 0001284 103.9932 256.1203 15.08836158 93906,6917.892,95.438,540.645,538.869,0.0
53707.0,STARLINK-4667,PAYLOAD,2024-05-08 20:47:51,15.08836252,0.0001336,53.2176,356.0899,108.1127,252.001,0.00019673,2.844e-05,0.0,0 STARLINK-4667,1 53707U 22107H   24129.86656756  .00002844  00000-0  19673-3 0  9998,2 53707  53.2176 356.0899 0001336 108.1127 252.0010 15.08836252 93193,6917.892,95.438,540.681,538.833,0.0
53707.0,STARLINK-4667,PAYLOAD,2024-05-08 22:23:14,15.08840603,0.000113,53.2172,355.7918,97.5281,262.584,0.00033174,4.996e-05,0.0,0 STARLINK-4667,1 53707U 22107H   24129.93280729  .00004996  00000-0  33174-3 0  9991,2 53707  53.2172 355.7918 0001130  97.5281 262.5840 15.08840603 93957,6917.879,95.438,540.525,538.962,0.0
53707.0,STARLINK-4667,PAYLOAD,2024-05-09 07:55:33,15.08857256,0.0001077,53.2168,354.0067,70.7585,289.3523,0.00094141,0.00014733,0.0,0 STARLINK-4667,1 53707U 22107H   24130.33024597  .00014733  00000-0  94141-3 0  9997,2 53707  53.2168 354.0067 0001077  70.7585 289.3523 15.08857256 93260,6917.828,95.436,540.438,538.948,0.0
